{
  "type": "FeatureCollection",
  "features": [
    {
      "type": "Feature",
      "geometry": {
        "type": "Polygon",
        "coordinates": [
          [
            [
              -121.832739,
              37.684510321183744
            ],
            [
              -121.81293073695643,
              37.683824231111466
            ],
            [
              -121.79327431669121,
              37.68177122036028
            ],
            [
              -121.77392039287537,
              37.67836702613154
            ],
            [
              -121.75501725105869,
              37.6736377401255
            ],
            [
              -121.73670964973203,
              37.667619604310005
            ],
            [
              -121.71913769123006,
              37.66035872742591
            ],
            [
              -121.70243573191605,
              37.651910724626745
            ],
            [
              -121.68673134066786,
              37.64234028329001
            ],
            [
              -121.67214431417158,
              37.631720658644824
            ],
            [
              -121.65878575693384,
              37.62013310342944
            ],
            [
              -121.6467572332546,
              37.60766623631658
            ],
            [
              -121.63614999767357,
              37.594415354321036
            ],
            [
              -121.62704430962212,
              37.58048169482679
            ],
            [
              -121.61950883719473,
              37.56597165323938
            ],
            [
              -121.61360015410823,
              37.55099596257937
            ],
            [
              -121.60936233305787,
              37.53566884158353
            ],
            [
              -121.60682663781458,
              37.52010711807205
            ],
            [
              -121.60601131555069,
              37.50442933447206
            ],
            [
              -121.60692149004014,
              37.48875484246043
            ],
            [
              -121.60954915556253,
              37.47320289370513
            ],
            [
              -121.61387327055469,
              37.457891733644686
            ],
            [
              -121.61985994930704,
              37.4429377051534
            ],
            [
              -121.62746274929687,
              37.42845436879736
            ],
            [
              -121.6366230510934,
              37.414551646197026
            ],
            [
              -121.64727052715978,
              37.40133499277947
            ],
            [
              -121.6593236953188,
              37.38890460592968
            ],
            [
              -121.67269055214116,
              37.377354674240536
            ],
            [
              -121.68726928105775,
              37.366772673217284
            ],
            [
              -121.70294902958929,
              37.35723871241913
            ],
            [
              -121.71961074972661,
              37.34882493862008
            ],
            [
              -121.73712809517978,
              37.34159499914773
            ],
            [
              -121.755368368944,
              37.33560356911467
            ],
            [
              -121.77419351439853,
              37.330895945795156
            ],
            [
              -121.79346114296392,
              37.32750771292394
            ],
            [
              -121.81302559118691,
              37.32546447720447
            ],
            [
              -121.832739,
              37.32478167881625
            ],
            [
              -121.8524524088131,
              37.32546447720447
            ],
            [
              -121.87201685703606,
              37.32750771292394
            ],
            [
              -121.89128448560145,
              37.330895945795156
            ],
            [
              -121.91010963105599,
              37.33560356911467
            ],
            [
              -121.92834990482021,
              37.34159499914773
            ],
            [
              -121.9458672502734,
              37.34882493862008
            ],
            [
              -121.96252897041069,
              37.35723871241913
            ],
            [
              -121.97820871894223,
              37.366772673217284
            ],
            [
              -121.99278744785883,
              37.377354674240536
            ],
            [
              -122.00615430468119,
              37.38890460592968
            ],
            [
              -122.01820747284022,
              37.40133499277947
            ],
            [
              -122.0288549489066,
              37.414551646197026
            ],
            [
              -122.03801525070314,
              37.42845436879736
            ],
            [
              -122.04561805069294,
              37.4429377051534
            ],
            [
              -122.05160472944532,
              37.457891733644686
            ],
            [
              -122.05592884443747,
              37.47320289370513
            ],
            [
              -122.05855650995987,
              37.48875484246043
            ],
            [
              -122.05946668444929,
              37.50442933447206
            ],
            [
              -122.05865136218542,
              37.52010711807205
            ],
            [
              -122.0561156669421,
              37.53566884158353
            ],
            [
              -122.05187784589175,
              37.55099596257937
            ],
            [
              -122.04596916280528,
              37.56597165323938
            ],
            [
              -122.03843369037787,
              37.58048169482679
            ],
            [
              -122.02932800232642,
              37.594415354321036
            ],
            [
              -122.0187207667454,
              37.60766623631658
            ],
            [
              -122.00669224306614,
              37.62013310342944
            ],
            [
              -121.99333368582842,
              37.631720658644824
            ],
            [
              -121.97874665933215,
              37.64234028329
            ],
            [
              -121.96304226808394,
              37.651910724626745
            ],
            [
              -121.94634030876992,
              37.66035872742591
            ],
            [
              -121.92876835026796,
              37.667619604310005
            ],
            [
              -121.91046074894132,
              37.6736377401255
            ],
            [
              -121.89155760712464,
              37.67836702613154
            ],
            [
              -121.87220368330877,
              37.68177122036028
            ],
            [
              -121.85254726304355,
              37.683824231111466
            ],
            [
              -121.832739,
              37.684510321183744
            ]
          ]
        ]
      },
      "properties": {
        "name": "POI study area 20 km radius",
        "center_lat": 37.504646,
        "center_lon": -121.832739,
        "radius_m": 20000,
        "source_name": "Synthetic geodesic buffer",
        "source_url": "local",
        "retrieved_at": "2026-05-03T03:13:46.301Z",
        "provisional": true
      }
    }
  ]
}
