{
  "type": "FeatureCollection",
  "features": [
    {
      "type": "Feature",
      "geometry": {
        "type": "Polygon",
        "coordinates": [
          [
            [
              -121.855,
              37.545
            ],
            [
              -121.845,
              37.545
            ],
            [
              -121.845,
              37.555
            ],
            [
              -121.855,
              37.555
            ],
            [
              -121.855,
              37.545
            ]
          ]
        ]
      },
      "properties": {
        "cue": "2pps",
        "source_name": "Synthetic mission fixture",
        "source_url": "local",
        "retrieved_at": "2026-05-03T01:52:09.210Z",
        "provisional": true
      }
    }
  ]
}
